{
  "norad_id": 43070,
  "name": "IRIDIUM 106",
  "line1": "1 43070U 17083F   24001.50000000  .00000080  00000-0  20000-4 0  9999",
  "line2": "2 43070  86.3900  40.0000 0002000 130.0000 230.0000 14.34200000330000",
  "epoch": "24001.50000000"
}
